OBJECT_NAME,OBJECT_ID,EPOCH,MEAN_MOTION,ECCENTRICITY,INCLINATION,RA_OF_ASC_NODE,ARG_OF_PERICENTER,MEAN_ANOMALY,EPHEMERIS_TYPE,CLASSIFICATION_TYPE,NORAD_CAT_ID,ELEMENT_SET_NO,REV_AT_EPOCH,BSTAR,MEAN_MOTION_DOT,MEAN_MOTION_DDOT
LOPEN,2024-149F,2026-06-26T17:57:25.356096,15.39951999,.00016172,97.3783,261.1917,166.8466,193.2822,0,U,60473,999,10373,.39841762E-3,.15801E-3,0
ROCK,2024-149G,2026-06-26T17:38:08.657088,15.39942200,.00019569,97.3778,261.1934,167.0252,193.1045,0,U,60474,999,10373,.3720376E-3,.14742E-3,0
CONNECTA IOT-3,2024-149H,2026-06-26T21:40:24.915360,15.23623377,.00021495,97.3738,253.7805,196.5630,163.5537,0,U,60475,999,10328,.19421109E-3,.4581E-4,0
QUBE,2024-149J,2026-06-26T19:24:47.411712,15.47640607,.00026094,97.3782,264.4296,168.2280,191.9032,0,U,60476,999,10395,.5257717E-3,.27102E-3,0
WREN-1,2024-149L,2026-06-26T19:19:26.228352,15.41919304,.0004054,97.3771,262.0202,208.4472,151.6554,0,U,60478,999,10380,.50979724E-3,.21623E-3,0
TOMORROW-S1,2024-149M,2026-06-26T19:09:32.765760,15.32848399,.00025374,97.3755,258.2404,177.2391,182.8865,0,U,60479,999,10356,.25225979E-3,.7926E-4,0
FLOCK 4BE-18,2024-149N,2026-06-26T19:33:27.550080,15.42153662,.00037771,97.3733,261.6463,198.5221,161.5889,0,U,60480,999,10379,.42478739E-3,.18136E-3,0
FLOCK 4BE-7,2024-149P,2026-06-26T18:24:13.875264,15.40694034,.00029733,97.3766,260.9187,198.7300,161.3838,0,U,60481,999,10372,.52179492E-3,.21249E-3,0
TOMORROW-S2,2024-149T,2026-06-26T23:01:11.516448,15.32887141,.0002085,97.3823,258.8991,202.5272,157.5879,0,U,60485,999,10358,.27220004E-3,.8569E-4,0
FLOCK 4BE-36,2024-149U,2026-06-26T18:44:40.451136,15.43002968,.00032327,97.3748,262.3253,209.6876,150.4189,0,U,60486,999,10383,.37560649E-3,.16484E-3,0
FLOCK 4BE-25,2024-149V,2026-06-26T18:37:34.228704,15.39069600,.00022904,97.3805,260.9922,184.4823,175.6403,0,U,60487,999,10371,.36207202E-3,.13939E-3,0
FLOCK 4BE-31,2024-149W,2026-06-26T19:16:41.206080,15.44451865,.00023114,97.3803,263.2335,198.9945,161.1217,0,U,60488,999,10386,.46318288E-3,.21378E-3,0
FLOCK 4BE-20,2024-149X,2026-06-26T19:25:36.365952,15.38296800,.00033995,97.3701,259.8803,206.9436,153.1634,0,U,60489,999,10369,.37914226E-3,.14239E-3,0
FLOCK 4BE-23,2024-149Y,2026-06-26T11:26:33.620064,15.37891762,.00028262,97.3782,259.9279,211.6393,148.4683,0,U,60490,999,10362,.3758562E-3,.13928E-3,0
FLOCK 4BE-17,2024-149AA,2026-06-26T18:33:08.788896,15.40047587,.00030023,97.3777,261.2188,196.7465,163.3682,0,U,60492,999,10373,.39275809E-3,.15625E-3,0
NUSAT-50 (NANCY ROMAN),2024-149AB,2026-06-26T17:13:13.991520,15.30012217,.00042946,97.3790,258.9069,146.8454,213.3056,0,U,60493,999,10358,.31571507E-3,.91E-4,0
FLOCK 4BE-22,2024-149AC,2026-06-26T16:20:40.811424,15.41438378,.00031629,97.3737,261.3328,211.1858,148.9202,0,U,60494,999,10376,.36348837E-3,.15134E-3,0
FLOCK 4BE-34,2024-149AD,2026-06-26T22:59:25.120032,15.41430818,.00030364,97.3785,262.4411,218.0077,142.0956,0,U,60495,999,10383,.39848348E-3,.16598E-3,0
TYCHE,2024-149AE,2026-06-26T21:44:52.615392,15.25830538,.00016385,97.3759,255.5929,222.1434,137.9678,0,U,60496,999,10338,.18938044E-3,.4772E-4,0
FLOCK 4BE-32,2024-149AF,2026-06-26T18:58:03.519264,15.42467361,.00032798,97.3726,261.8223,214.2377,145.8659,0,U,60497,999,10381,.43715486E-3,.18864E-3,0
NUSAT-48 (HENRIETTA LEAVITT),2024-149AG,2026-06-26T18:30:59.093856,15.30016276,.00028916,97.3924,259.2211,224.6650,135.4358,0,U,60498,999,10360,.32203316E-3,.9283E-4,0
FLOCK 4BE-30,2024-149AH,2026-06-26T22:58:30.084960,15.59023236,.00055216,97.3778,263.8198,224.1788,135.9028,0,U,60499,999,10329,.19924834E-2,.157857E-2,0
NUSAT-49 (KLARA DAN VON NEUMANN),2024-149AJ,2026-06-26T22:41:11.635584,15.30098361,.00007597,97.3785,259.1654,238.6343,121.4824,0,U,60500,999,10362,.3185363E-3,.9205E-4,0
FLOCK 4BE-11,2024-149AK,2026-06-26T18:42:58.765248,15.43281932,.00034689,97.3701,262.0509,216.5680,143.5332,0,U,60501,999,10383,.40861853E-3,.18114E-3,0
YAM-7,2024-149AN,2026-06-26T11:07:38.178912,15.31938745,.0001938,97.3791,257.6759,246.5073,113.5965,0,U,60504,999,10347,.26149E-3,.7987E-4,0
FLOCK 4BE-24,2024-149AP,2026-06-26T23:02:42.595872,15.43422869,.00034604,97.3723,262.4935,228.2176,131.8777,0,U,60505,999,10387,.47573389E-3,.21212E-3,0
LUR-1,2024-149AQ,2026-06-26T18:59:29.940864,15.30223444,.00025359,97.3742,256.5502,266.3758,93.7192,0,U,60506,999,10344,.24482006E-3,.7083E-4,0
TANAGER-1,2024-149AR,2026-06-26T19:27:58.058496,15.44778146,.00030183,97.2410,272.0406,270.1991,89.8912,0,U,60507,999,10452,.24735936E-4,.1071E-4,0
