LOPEN                   
1 60473U 24149F   26177.74821014  .00015801  00000+0  39842-3 0  9993
2 60473  97.3783 261.1917 0001617 166.8466 193.2822 15.39951999103739
ROCK                    
1 60474U 24149G   26177.73482242  .00014742  00000+0  37204-3 0  9992
2 60474  97.3778 261.1934 0001956 167.0252 193.1045 15.39942200103736
CONNECTA IOT-3          
1 60475U 24149H   26177.90306615  .00004581  00000+0  19421-3 0  9992
2 60475  97.3738 253.7805 0002149 196.5630 163.5537 15.23623377103280
QUBE                    
1 60476U 24149J   26177.80888208  .00027102  00000+0  52577-3 0  9998
2 60476  97.3782 264.4296 0002609 168.2280 191.9032 15.47640607103951
WREN-1                  
1 60478U 24149L   26177.80516468  .00021623  00000+0  50980-3 0  9994
2 60478  97.3771 262.0202 0004054 208.4472 151.6554 15.41919304103801
TOMORROW-S1             
1 60479U 24149M   26177.79829590  .00007926  00000+0  25226-3 0  9991
2 60479  97.3755 258.2404 0002537 177.2391 182.8865 15.32848399103561
FLOCK 4BE-18            
1 60480U 24149N   26177.81490220  .00018136  00000+0  42479-3 0  9994
2 60480  97.3733 261.6463 0003777 198.5221 161.5889 15.42153662103795
FLOCK 4BE-7             
1 60481U 24149P   26177.76682726  .00021249  00000+0  52179-3 0  9990
2 60481  97.3766 260.9187 0002973 198.7300 161.3838 15.40694034103720
TOMORROW-S2             
1 60485U 24149T   26177.95916107  .00008569  00000+0  27220-3 0  9997
2 60485  97.3823 258.8991 0002085 202.5272 157.5879 15.32887141103583
FLOCK 4BE-36            
1 60486U 24149U   26177.78102374  .00016484  00000+0  37561-3 0  9996
2 60486  97.3748 262.3253 0003232 209.6876 150.4189 15.43002968103836
FLOCK 4BE-25            
1 60487U 24149V   26177.77609061  .00013939  00000+0  36207-3 0  9999
2 60487  97.3805 260.9922 0002290 184.4823 175.6403 15.39069600103719
FLOCK 4BE-31            
1 60488U 24149W   26177.80325470  .00021378  00000+0  46318-3 0  9993
2 60488  97.3803 263.2335 0002311 198.9945 161.1217 15.44451865103864
FLOCK 4BE-20            
1 60489U 24149X   26177.80944868  .00014239  00000+0  37914-3 0  9992
2 60489  97.3701 259.8803 0003399 206.9436 153.1634 15.38296800103699
FLOCK 4BE-23            
1 60490U 24149Y   26177.47677801  .00013928  00000+0  37586-3 0  9996
2 60490  97.3782 259.9279 0002826 211.6393 148.4683 15.37891762103628
FLOCK 4BE-17            
1 60492U 24149AA  26177.77301839  .00015625  00000+0  39276-3 0  9990
2 60492  97.3777 261.2188 0003002 196.7465 163.3682 15.40047587103738
NUSAT-50 (NANCY ROMAN)  
1 60493U 24149AB  26177.71752305  .00009100  00000+0  31572-3 0  9995
2 60493  97.3790 258.9069 0004294 146.8454 213.3056 15.30012217103588
FLOCK 4BE-22            
1 60494U 24149AC  26177.68102791  .00015134  00000+0  36349-3 0  9991
2 60494  97.3737 261.3328 0003162 211.1858 148.9202 15.41438378103761
FLOCK 4BE-34            
1 60495U 24149AD  26177.95792963  .00016598  00000+0  39848-3 0  9990
2 60495  97.3785 262.4411 0003036 218.0077 142.0956 15.41430818103839
TYCHE                   
1 60496U 24149AE  26177.90616453  .00004772  00000+0  18938-3 0  9993
2 60496  97.3759 255.5929 0001638 222.1434 137.9678 15.25830538103386
FLOCK 4BE-32            
1 60497U 24149AF  26177.79031851  .00018864  00000+0  43715-3 0  9992
2 60497  97.3726 261.8223 0003279 214.2377 145.8659 15.42467361103813
NUSAT-48 (HENRIETTA LE*)
1 60498U 24149AG  26177.77151729  .00009283  00000+0  32203-3 0  9993
2 60498  97.3924 259.2211 0002891 224.6650 135.4358 15.30016276103600
FLOCK 4BE-30            
1 60499U 24149AH  26177.95729265  .00157857  00000+0  19925-2 0  9996
2 60499  97.3778 263.8198 0005521 224.1788 135.9028 15.59023236103292
NUSAT-49 (KLARA DAN VO*)
1 60500U 24149AJ  26177.94527356  .00009205  00000+0  31854-3 0  9994
2 60500  97.3785 259.1654 0000759 238.6343 121.4824 15.30098361103624
FLOCK 4BE-11            
1 60501U 24149AK  26177.77984682  .00018114  00000+0  40862-3 0  9993
2 60501  97.3701 262.0509 0003468 216.5680 143.5332 15.43281932103838
YAM-7                   
1 60504U 24149AN  26177.46363633  .00007987  00000+0  26149-3 0  9997
2 60504  97.3791 257.6759 0001938 246.5073 113.5965 15.31938745103473
FLOCK 4BE-24            
1 60505U 24149AP  26177.96021523  .00021212  00000+0  47573-3 0  9993
2 60505  97.3723 262.4935 0003460 228.2176 131.8777 15.43422869103878
LUR-1                   
1 60506U 24149AQ  26177.79131876  .00007083  00000+0  24482-3 0  9992
2 60506  97.3742 256.5502 0002535 266.3758  93.7192 15.30223444103449
TANAGER-1               
1 60507U 24149AR  26177.81108864  .00001071  00000+0  24736-4 0  9991
2 60507  97.2410 272.0406 0003018 270.1991  89.8912 15.44778146104521
